{
  "type": "FeatureCollection",
  "features": [
    {
      "type": "Feature",
      "properties": {
        "norad_id": 41599,
        "name": "CARTOSAT-2C",
        "group": "resource",
        "lat": 80.2374566956984,
        "lon": 8.924882897942915,
        "alt_km": 497.9515991226217,
        "timestamp": "2025-12-27T13:34:48.947077+00:00",
        "meta_object_name": "CARTOSAT-2C",
        "meta_object_id": "2016-040A",
        "meta_epoch": "2025-12-27T06:53:27.269952",
        "meta_mean_motion": 15.19251245,
        "meta_eccentricity": 0.00104506,
        "meta_inclination": 97.4746,
        "meta_ra_of_asc_node": 58.3855,
        "meta_arg_of_pericenter": 17.1473,
        "meta_mean_anomaly": 343.0112,
        "meta_ephemeris_type": 0,
        "meta_classification_type": "U",
        "meta_norad_cat_id": 41599,
        "meta_element_set_no": 999,
        "meta_rev_at_epoch": 52761,
        "meta_bstar": 0.00023044369,
        "meta_mean_motion_dot": 4.795e-05,
        "meta_mean_motion_ddot": 0,
        "tle_line1": "1 41599U 16040A   25361.28712118  .00004795  00000+0  23044-3 0  9996",
        "tle_line2": "2 41599  97.4746  58.3855 0010450  17.1473 343.0112 15.19251245527614"
      },
      "geometry": {
        "type": "Point",
        "coordinates": [
          8.924882897942915,
          80.2374566956984
        ]
      }
    },
    {
      "type": "Feature",
      "properties": {
        "norad_id": 41601,
        "name": "SKYSAT-C1",
        "group": "resource",
        "lat": 41.52293307231505,
        "lon": -136.02750281792368,
        "alt_km": 464.5452599454784,
        "timestamp": "2025-12-27T13:34:48.947108+00:00",
        "meta_object_name": "SKYSAT-C1",
        "meta_object_id": "2016-040C",
        "meta_epoch": "2025-12-27T02:00:47.003040",
        "meta_mean_motion": 15.32852129,
        "meta_eccentricity": 7.8e-05,
        "meta_inclination": 96.981,
        "meta_ra_of_asc_node": 37.2889,
        "meta_arg_of_pericenter": 305.2768,
        "meta_mean_anomaly": 54.8402,
        "meta_ephemeris_type": 0,
        "meta_classification_type": "U",
        "meta_norad_cat_id": 41601,
        "meta_element_set_no": 999,
        "meta_rev_at_epoch": 53147,
        "meta_bstar": 0.00033559294,
        "meta_mean_motion_dot": 0.00010579,
        "meta_mean_motion_ddot": 0,
        "tle_line1": "1 41601U 16040C   25361.08387735  .00010579  00000+0  33559-3 0  9990",
        "tle_line2": "2 41601  96.9810  37.2889 0000780 305.2768  54.8402 15.32852129531471"
      },
      "geometry": {
        "type": "Point",
        "coordinates": [
          -136.02750281792368,
          41.52293307231505
        ]
      }
    },
    {
      "type": "Feature",
      "properties": {
        "norad_id": 41603,
        "name": "LAPAN-A3",
        "group": "resource",
        "lat": -42.398051520032894,
        "lon": 172.00819879546324,
        "alt_km": 473.6385314908757,
        "timestamp": "2025-12-27T13:34:48.947119+00:00",
        "meta_object_name": "LAPAN-A3",
        "meta_object_id": "2016-040E",
        "meta_epoch": "2025-12-27T06:20:18.031776",
        "meta_mean_motion": 15.3167436,
        "meta_eccentricity": 0.00086311,
        "meta_inclination": 97.1437,
        "meta_ra_of_asc_node": 358.293,
        "meta_arg_of_pericenter": 272.9605,
        "meta_mean_anomaly": 87.065,
        "meta_ephemeris_type": 0,
        "meta_classification_type": "U",
        "meta_norad_cat_id": 41603,
        "meta_element_set_no": 999,
        "meta_rev_at_epoch": 52848,
        "meta_bstar": 0.00017044711,
        "meta_mean_motion_dot": 5.143e-05,
        "meta_mean_motion_ddot": 0,
        "tle_line1": "1 41603U 16040E   25361.26409759  .00005143  00000+0  17045-3 0  9996",
        "tle_line2": "2 41603  97.1437 358.2930 0008631 272.9605  87.0650 15.31674360528485"
      },
      "geometry": {
        "type": "Point",
        "coordinates": [
          172.00819879546324,
          -42.398051520032894
        ]
      }
    },
    {
      "type": "Feature",
      "properties": {
        "norad_id": 41604,
        "name": "BIROS",
        "group": "resource",
        "lat": 57.810614770992906,
        "lon": 22.293312567040427,
        "alt_km": 278.6252624788576,
        "timestamp": "2025-12-27T13:34:48.947130+00:00",
        "meta_object_name": "BIROS",
        "meta_object_id": "2016-040F",
        "meta_epoch": "2025-12-27T01:17:48.160032",
        "meta_mean_motion": 15.95745444,
        "meta_eccentricity": 0.00039701,
        "meta_inclination": 97.065,
        "meta_ra_of_asc_node": 33.1199,
        "meta_arg_of_pericenter": 119.7348,
        "meta_mean_anomaly": 240.4324,
        "meta_ephemeris_type": 0,
        "meta_classification_type": "U",
        "meta_norad_cat_id": 41604,
        "meta_element_set_no": 999,
        "meta_rev_at_epoch": 53100,
        "meta_bstar": 0.00067247339,
        "meta_mean_motion_dot": 0.00269024,
        "meta_mean_motion_ddot": 3.0289219e-05,
        "tle_line1": "1 41604U 16040F   25361.05402963  .00269024  30289-4  67247-3 0  9990",
        "tle_line2": "2 41604  97.0650  33.1199 0003970 119.7348 240.4324 15.95745444531008"
      },
      "geometry": {
        "type": "Point",
        "coordinates": [
          22.293312567040427,
          57.810614770992906
        ]
      }
    },
    {
      "type": "Feature",
      "properties": {
        "norad_id": 41727,
        "name": "GAOFEN-3",
        "group": "resource",
        "lat": -79.04875118041093,
        "lon": 56.74683190792129,
        "alt_km": 759.0525161339183,
        "timestamp": "2025-12-27T13:34:48.947141+00:00",
        "meta_object_name": "GAOFEN-3",
        "meta_object_id": "2016-049A",
        "meta_epoch": "2025-12-27T07:18:15.011424",
        "meta_mean_motion": 14.42217456,
        "meta_eccentricity": 0.00010415,
        "meta_inclination": 98.4042,
        "meta_ra_of_asc_node": 6.6684,
        "meta_arg_of_pericenter": 54.6463,
        "meta_mean_anomaly": 305.4824,
        "meta_ephemeris_type": 0,
        "meta_classification_type": "U",
        "meta_norad_cat_id": 41727,
        "meta_element_set_no": 999,
        "meta_rev_at_epoch": 49387,
        "meta_bstar": 7.2962859e-05,
        "meta_mean_motion_dot": 1.97e-06,
        "meta_mean_motion_ddot": 0,
        "tle_line1": "1 41727U 16049A   25361.30434041  .00000197  00000+0  72963-4 0  9994",
        "tle_line2": "2 41727  98.4042   6.6684 0001041  54.6463 305.4824 14.42217456493877"
      },
      "geometry": {
        "type": "Point",
        "coordinates": [
          56.74683190792129,
          -79.04875118041093
        ]
      }
    },
    {
      "type": "Feature",
      "properties": {
        "norad_id": 41771,
        "name": "SKYSAT-C4",
        "group": "resource",
        "lat": -51.615860519904814,
        "lon": -162.80636858394627,
        "alt_km": 445.9153009808042,
        "timestamp": "2025-12-27T13:34:48.947151+00:00",
        "meta_object_name": "SKYSAT-C4",
        "meta_object_id": "2016-058B",
        "meta_epoch": "2025-12-27T01:40:48.462240",
        "meta_mean_motion": 15.42665603,
        "meta_eccentricity": 0.00026667,
        "meta_inclination": 96.9365,
        "meta_ra_of_asc_node": 25.5626,
        "meta_arg_of_pericenter": 121.1316,
        "meta_mean_anomaly": 239.0195,
        "meta_ephemeris_type": 0,
        "meta_classification_type": "U",
        "meta_norad_cat_id": 41771,
        "meta_element_set_no": 999,
        "meta_rev_at_epoch": 51888,
        "meta_bstar": 0.00040521995,
        "meta_mean_motion_dot": 0.00017599,
        "meta_mean_motion_ddot": 0,
        "tle_line1": "1 41771U 16058B   25361.07000535  .00017599  00000+0  40522-3 0  9993",
        "tle_line2": "2 41771  96.9365  25.5626 0002666 121.1316 239.0195 15.42665603518888"
      },
      "geometry": {
        "type": "Point",
        "coordinates": [
          -162.80636858394627,
          -51.615860519904814
        ]
      }
    },
    {
      "type": "Feature",
      "properties": {
        "norad_id": 41772,
        "name": "SKYSAT-C5",
        "group": "resource",
        "lat": 60.014401674063265,
        "lon": 32.26866063820431,
        "alt_km": 460.280728824393,
        "timestamp": "2025-12-27T13:34:48.947161+00:00",
        "meta_object_name": "SKYSAT-C5",
        "meta_object_id": "2016-058C",
        "meta_epoch": "2025-12-27T02:21:29.429856",
        "meta_mean_motion": 15.34140488,
        "meta_eccentricity": 0.00040611,
        "meta_inclination": 97.0741,
        "meta_ra_of_asc_node": 44.249,
        "meta_arg_of_pericenter": 222.2692,
        "meta_mean_anomaly": 137.824,
        "meta_ephemeris_type": 0,
        "meta_classification_type": "U",
        "meta_norad_cat_id": 41772,
        "meta_element_set_no": 999,
        "meta_rev_at_epoch": 51736,
        "meta_bstar": 0.00033469855,
        "meta_mean_motion_dot": 0.0001099,
        "meta_mean_motion_ddot": 0,
        "tle_line1": "1 41772U 16058C   25361.09825729  .00010990  00000+0  33470-3 0  9998",
        "tle_line2": "2 41772  97.0741  44.2490 0004061 222.2692 137.8240 15.34140488517365"
      },
      "geometry": {
        "type": "Point",
        "coordinates": [
          32.26866063820431,
          60.014401674063265
        ]
      }
    }
  ]
}